start=new Date('2022-08-25T00:00:00.000Z').valueOf();
sats=[{"CLASSIFICATION_TYPE":"U","FILE":"3546350","MEAN_ELEMENT_THEORY":"SGP4","LAUNCH_DATE":"2019-11-11","CENTER_NAME":"EARTH","DECAY_DATE":null,"MEAN_MOTION":"15.06396445","MEAN_MOTION_DOT":"0.00002110","OBJECT_ID":"2019-074W","PERIOD":"95.592","TLE_LINE2":"2 44733  53.0535 232.5428 0001859  64.0201 296.0979 15.06396445153819","ARG_OF_PERICENTER":"64.0201","SITE":"AFETR","GP_ID":"210898669","ECCENTRICITY":"0.00018590","RA_OF_ASC_NODE":"232.5428","MEAN_ANOMALY":"296.0979","REV_AT_EPOCH":"15381","OBJECT_NAME":"STARLINK-1028","BSTAR":"0.00016050000000","OBJECT_TYPE":"PAYLOAD","EPHEMERIS_TYPE":"0","COUNTRY_CODE":"US","APOAPSIS":"548.512","MEAN_MOTION_DDOT":"0.0000000000000","REF_FRAME":"TEME","TIME_SYSTEM":"UTC","NORAD_CAT_ID":"44733","SEMIMAJOR_AXIS":"6925.359","TLE_LINE1":"1 44733U 19074W   22236.37152626  .00002110  00000-0  16050-3 0  9998","EPOCH":"2022-08-24T08:54:59.868864","PERIAPSIS":"545.937","RCS_SIZE":"LARGE","ELEMENT_SET_NO":"999","INCLINATION":"53.0535"},{"TIME_SYSTEM":"UTC","SEMIMAJOR_AXIS":"6925.374","TLE_LINE1":"1 44734U 19074X   22236.18722419 -.00001308  00000-0 -68921-4 0  9996","NORAD_CAT_ID":"44734","RCS_SIZE":"LARGE","EPOCH":"2022-08-24T04:29:36.170016","PERIAPSIS":"546.090","INCLINATION":"53.0552","ELEMENT_SET_NO":"999","BSTAR":"-0.00006892100000","REV_AT_EPOCH":"15488","OBJECT_NAME":"STARLINK-1029","OBJECT_TYPE":"PAYLOAD","EPHEMERIS_TYPE":"0","APOAPSIS":"548.388","MEAN_MOTION_DDOT":"0.0000000000000","COUNTRY_CODE":"US","REF_FRAME":"TEME","PERIOD":"95.593","TLE_LINE2":"2 44734  53.0552 153.3860 0001659  61.4123 298.7033 15.06391771154886","OBJECT_ID":"2019-074X","SITE":"AFETR","ECCENTRICITY":"0.00016590","GP_ID":"210898918","ARG_OF_PERICENTER":"61.4123","RA_OF_ASC_NODE":"153.3860","MEAN_ANOMALY":"298.7033","CLASSIFICATION_TYPE":"U","FILE":"3546350","MEAN_ELEMENT_THEORY":"SGP4","LAUNCH_DATE":"2019-11-11","MEAN_MOTION":"15.06391771","MEAN_MOTION_DOT":"-0.00001308","CENTER_NAME":"EARTH","DECAY_DATE":null},{"TLE_LINE1":"1 44735U 19074Y   22236.44709905  .00000916  00000-0  80386-4 0  9992","SEMIMAJOR_AXIS":"6925.382","NORAD_CAT_ID":"44735","TIME_SYSTEM":"UTC","INCLINATION":"53.0541","ELEMENT_SET_NO":"999","RCS_SIZE":"LARGE","PERIAPSIS":"546.215","EPOCH":"2022-08-24T10:43:49.357920","EPHEMERIS_TYPE":"0","OBJECT_TYPE":"PAYLOAD","BSTAR":"0.00008038600000","REV_AT_EPOCH":"15354","OBJECT_NAME":"STARLINK-1030","REF_FRAME":"TEME","APOAPSIS":"548.279","MEAN_MOTION_DDOT":"0.0000000000000","COUNTRY_CODE":"US","TLE_LINE2":"2 44735  53.0541 252.2192 0001490  66.8111 293.3035 15.06389026153546","PERIOD":"95.593","OBJECT_ID":"2019-074Y","MEAN_ANOMALY":"293.3035","RA_OF_ASC_NODE":"252.2192","ECCENTRICITY":"0.00014900","GP_ID":"210899166","SITE":"AFETR","ARG_OF_PERICENTER":"66.8111","FILE":"3546350","CLASSIFICATION_TYPE":"U","MEAN_MOTION_DOT":"0.00000916","MEAN_MOTION":"15.06389026","DECAY_DATE":null,"CENTER_NAME":"EARTH","MEAN_ELEMENT_THEORY":"SGP4","LAUNCH_DATE":"2019-11-11"},{"EPOCH":"2022-08-24T07:53:56.143392","PERIAPSIS":"546.232","RCS_SIZE":"LARGE","ELEMENT_SET_NO":"999","INCLINATION":"53.0538","TIME_SYSTEM":"UTC","NORAD_CAT_ID":"44736","SEMIMAJOR_AXIS":"6925.340","TLE_LINE1":"1 44736U 19074Z   22236.32912203  .00001116  00000-0  93823-4 0  9990","COUNTRY_CODE":"US","APOAPSIS":"548.178","MEAN_MOTION_DDOT":"0.0000000000000","REF_FRAME":"TEME","REV_AT_EPOCH":"15353","OBJECT_NAME":"STARLINK-1031","BSTAR":"0.00009382300000","OBJECT_TYPE":"PAYLOAD","EPHEMERIS_TYPE":"0","ARG_OF_PERICENTER":"75.2742","SITE":"AFETR","GP_ID":"210899919","ECCENTRICITY":"0.00014050","MEAN_ANOMALY":"284.8402","RA_OF_ASC_NODE":"252.7505","OBJECT_ID":"2019-074Z","PERIOD":"95.592","TLE_LINE2":"2 44736  53.0538 252.7505 0001405  75.2742 284.8402 15.06402686153536","LAUNCH_DATE":"2019-11-11","MEAN_ELEMENT_THEORY":"SGP4","CENTER_NAME":"EARTH","DECAY_DATE":null,"MEAN_MOTION":"15.06402686","MEAN_MOTION_DOT":"0.00001116","CLASSIFICATION_TYPE":"U","FILE":"3546350"},{"ELEMENT_SET_NO":"999","INCLINATION":"53.0534","EPOCH":"2022-08-24T17:43:07.252896","PERIAPSIS":"546.128","RCS_SIZE":"LARGE","NORAD_CAT_ID":"44737","SEMIMAJOR_AXIS":"6925.362","TLE_LINE1":"1 44737U 19074AA  22236.73827839  .00000889  00000-0  78572-4 0  9996","TIME_SYSTEM":"UTC","REF_FRAME":"TEME","COUNTRY_CODE":"US","APOAPSIS":"548.327","MEAN_MOTION_DDOT":"0.0000000000000","OBJECT_TYPE":"PAYLOAD","EPHEMERIS_TYPE":"0","OBJECT_NAME":"STARLINK-1032","REV_AT_EPOCH":"15359","BSTAR":"0.00007857200000","MEAN_ANOMALY":"290.1896","RA_OF_ASC_NODE":"250.9087","ARG_OF_PERICENTER":"69.9263","SITE":"AFETR","GP_ID":"210930271","ECCENTRICITY":"0.00015880","OBJECT_ID":"2019-074AA","PERIOD":"95.592","TLE_LINE2":"2 44737  53.0534 250.9087 0001588  69.9263 290.1896 15.06395519153597","CENTER_NAME":"EARTH","DECAY_DATE":null,"MEAN_MOTION":"15.06395519","MEAN_MOTION_DOT":"0.00000889","MEAN_ELEMENT_THEORY":"SGP4","LAUNCH_DATE":"2019-11-11","CLASSIFICATION_TYPE":"U","FILE":"3546663"},{"RA_OF_ASC_NODE":"252.7674","MEAN_ANOMALY":"285.8283","ARG_OF_PERICENTER":"74.2869","GP_ID":"210898420","ECCENTRICITY":"0.00014750","SITE":"AFETR","OBJECT_ID":"2019-074AB","TLE_LINE2":"2 44738  53.0545 252.7674 0001475  74.2869 285.8283 15.06406358153526","PERIOD":"95.592","DECAY_DATE":null,"CENTER_NAME":"EARTH","MEAN_MOTION_DOT":"0.00000872","MEAN_MOTION":"15.06406358","MEAN_ELEMENT_THEORY":"SGP4","LAUNCH_DATE":"2019-11-11","FILE":"3546350","CLASSIFICATION_TYPE":"U","ELEMENT_SET_NO":"999","INCLINATION":"53.0545","PERIAPSIS":"546.173","EPOCH":"2022-08-24T07:48:37.311840","RCS_SIZE":"LARGE","NORAD_CAT_ID":"44738","TLE_LINE1":"1 44738U 19074AB  22236.32543185  .00000872  00000-0  77430-4 0  9995","SEMIMAJOR_AXIS":"6925.329","TIME_SYSTEM":"UTC","REF_FRAME":"TEME","COUNTRY_CODE":"US","APOAPSIS":"548.216","MEAN_MOTION_DDOT":"0.0000000000000","EPHEMERIS_TYPE":"0","OBJECT_TYPE":"PAYLOAD","REV_AT_EPOCH":"15352","OBJECT_NAME":"STARLINK-1033","BSTAR":"0.00007743000000"},{"PERIAPSIS":"514.508","EPOCH":"2022-08-24T17:31:55.850592","RCS_SIZE":"LARGE","ELEMENT_SET_NO":"999","INCLINATION":"52.9925","TIME_SYSTEM":"UTC","NORAD_CAT_ID":"44739","TLE_LINE1":"1 44739U 19074AC  22236.73050753  .00010894  00000-0  56199-3 0  9998","SEMIMAJOR_AXIS":"6893.527","COUNTRY_CODE":"US","APOAPSIS":"516.276","MEAN_MOTION_DDOT":"0.0000000000000","REF_FRAME":"TEME","REV_AT_EPOCH":"15375","OBJECT_NAME":"STARLINK-1034","BSTAR":"0.00056199000000","EPHEMERIS_TYPE":"0","OBJECT_TYPE":"PAYLOAD","ARG_OF_PERICENTER":"81.5780","GP_ID":"210931772","ECCENTRICITY":"0.00012830","SITE":"AFETR","MEAN_ANOMALY":"278.5358","RA_OF_ASC_NODE":"235.6314","OBJECT_ID":"2019-074AC","TLE_LINE2":"2 44739  52.9925 235.6314 0001283  81.5780 278.5358 15.16842662153758","PERIOD":"94.934","LAUNCH_DATE":"2019-11-11","MEAN_ELEMENT_THEORY":"SGP4","DECAY_DATE":null,"CENTER_NAME":"EARTH","MEAN_MOTION_DOT":"0.00010894","MEAN_MOTION":"15.16842662","FILE":"3546663","CLASSIFICATION_TYPE":"U"},{"RCS_SIZE":"LARGE","EPOCH":"2022-08-24T17:37:49.380384","PERIAPSIS":"546.093","INCLINATION":"53.0530","ELEMENT_SET_NO":"999","TIME_SYSTEM":"UTC","SEMIMAJOR_AXIS":"6925.368","TLE_LINE1":"1 44740U 19074AD  22236.73459931  .00001008  00000-0  86577-4 0  9992","NORAD_CAT_ID":"44740","APOAPSIS":"548.372","MEAN_MOTION_DDOT":"0.0000000000000","COUNTRY_CODE":"US","REF_FRAME":"TEME","BSTAR":"0.00008657700000","REV_AT_EPOCH":"15359","OBJECT_NAME":"STARLINK-1035","OBJECT_TYPE":"PAYLOAD","EPHEMERIS_TYPE":"0","SITE":"AFETR","GP_ID":"210931523","ECCENTRICITY":"0.00016450","ARG_OF_PERICENTER":"64.0214","MEAN_ANOMALY":"296.0944","RA_OF_ASC_NODE":"250.9305","PERIOD":"95.593","TLE_LINE2":"2 44740  53.0530 250.9305 0001645  64.0214 296.0944 15.06393784153597","OBJECT_ID":"2019-074AD","LAUNCH_DATE":"2019-11-11","MEAN_ELEMENT_THEORY":"SGP4","MEAN_MOTION":"15.06393784","MEAN_MOTION_DOT":"0.00001008","CENTER_NAME":"EARTH","DECAY_DATE":null,"CLASSIFICATION_TYPE":"U","FILE":"3546663"},{"TIME_SYSTEM":"UTC","TLE_LINE1":"1 44741U 19074AE  22236.74563929 -.00000745  00000-0 -31111-4 0  9990","SEMIMAJOR_AXIS":"6925.362","NORAD_CAT_ID":"44741","RCS_SIZE":"LARGE","PERIAPSIS":"546.278","EPOCH":"2022-08-24T17:53:43.234656","INCLINATION":"53.0546","ELEMENT_SET_NO":"999","BSTAR":"-0.00003111100000","OBJECT_NAME":"STARLINK-1036","REV_AT_EPOCH":"15359","EPHEMERIS_TYPE":"0","OBJECT_TYPE":"PAYLOAD","MEAN_MOTION_DDOT":"0.0000000000000","APOAPSIS":"548.177","COUNTRY_CODE":"US","REF_FRAME":"TEME","TLE_LINE2":"2 44741  53.0546 250.8722 0001371  83.4131 276.7014 15.06395543153594","PERIOD":"95.592","OBJECT_ID":"2019-074AE","ECCENTRICITY":"0.00013710","GP_ID":"210930771","SITE":"AFETR","ARG_OF_PERICENTER":"83.4131","MEAN_ANOMALY":"276.7014","RA_OF_ASC_NODE":"250.8722","FILE":"3546663","CLASSIFICATION_TYPE":"U","LAUNCH_DATE":"2019-11-11","MEAN_ELEMENT_THEORY":"SGP4","MEAN_MOTION_DOT":"-0.00000745","MEAN_MOTION":"15.06395543","DECAY_DATE":null,"CENTER_NAME":"EARTH"},{"OBJECT_TYPE":"PAYLOAD","EPHEMERIS_TYPE":"0","REV_AT_EPOCH":"15380","OBJECT_NAME":"STARLINK-1037","BSTAR":"0.00050621000000","REF_FRAME":"TEME","COUNTRY_CODE":"US","APOAPSIS":"512.323","MEAN_MOTION_DDOT":"0.0000000000000","NORAD_CAT_ID":"44742","SEMIMAJOR_AXIS":"6889.442","TLE_LINE1":"1 44742U 19074AF  22236.46559735  .00010175  00000-0  50621-3 0  9992","TIME_SYSTEM":"UTC","ELEMENT_SET_NO":"999","INCLINATION":"52.9926","EPOCH":"2022-08-24T11:10:27.611040","PERIAPSIS":"510.291","RCS_SIZE":"LARGE","CLASSIFICATION_TYPE":"U","FILE":"3546350","CENTER_NAME":"EARTH","DECAY_DATE":null,"MEAN_MOTION":"15.18192029","MEAN_MOTION_DOT":"0.00010175","LAUNCH_DATE":"2019-11-11","MEAN_ELEMENT_THEORY":"SGP4","OBJECT_ID":"2019-074AF","PERIOD":"94.850","TLE_LINE2":"2 44742  52.9926 230.7500 0001475  37.4001 322.7095 15.18192029153808","MEAN_ANOMALY":"322.7095","RA_OF_ASC_NODE":"230.7500","ARG_OF_PERICENTER":"37.4001","SITE":"AFETR","ECCENTRICITY":"0.00014750","GP_ID":"210898919"}];
